{"fetched_at":"2026-07-12T17:32:22.539Z","source":"https://celestrak.org/NORAD/elements/gp.php?GROUP=kuiper&FORMAT=JSON","constellation":"kuiper","records":[{"OBJECT_NAME":"KUIPER-00272","OBJECT_ID":"2026-072R","EPOCH":"2026-07-12T02:41:34.188864","CLASSIFICATION_TYPE":"U","MEAN_MOTION":14.79925586,"ECCENTRICITY":0.00006384,"INCLINATION":51.8983,"RA_OF_ASC_NODE":82.9185,"ARG_OF_PERICENTER":114.1691,"MEAN_ANOMALY":245.9338,"EPHEMERIS_TYPE":0,"NORAD_CAT_ID":68588,"ELEMENT_SET_NO":999,"REV_AT_EPOCH":1484,"BSTAR":0.00028012483,"MEAN_MOTION_DOT":0.00001915,"MEAN_MOTION_DDOT":0},{"OBJECT_NAME":"KUIPER-00285","OBJECT_ID":"2026-072S","EPOCH":"2026-07-12T12:00:02.000160","CLASSIFICATION_TYPE":"U","MEAN_MOTION":14.80238043,"ECCENTRICITY":0.0000664,"INCLINATION":51.9042,"RA_OF_ASC_NODE":61.276,"ARG_OF_PERICENTER":298.8298,"MEAN_ANOMALY":214.9397,"EPHEMERIS_TYPE":0,"NORAD_CAT_ID":68589,"ELEMENT_SET_NO":999,"REV_AT_EPOCH":515,"BSTAR":-0.0032779,"MEAN_MOTION_DOT":-0.00025298,"MEAN_MOTION_DDOT":0},{"OBJECT_NAME":"KUIPER-00286","OBJECT_ID":"2026-072T","EPOCH":"2026-07-12T12:00:02.000160","CLASSIFICATION_TYPE":"U","MEAN_MOTION":14.85552342,"ECCENTRICITY":0.0003267,"INCLINATION":51.9007,"RA_OF_ASC_NODE":58.4196,"ARG_OF_PERICENTER":36.462,"MEAN_ANOMALY":257.2281,"EPHEMERIS_TYPE":0,"NORAD_CAT_ID":68590,"ELEMENT_SET_NO":999,"REV_AT_EPOCH":583,"BSTAR":-0.00027612,"MEAN_MOTION_DOT":-0.00002643,"MEAN_MOTION_DDOT":0},{"OBJECT_NAME":"KUIPER-00289","OBJECT_ID":"2026-072U","EPOCH":"2026-07-12T01:27:35.802720","CLASSIFICATION_TYPE":"U","MEAN_MOTION":14.79938561,"ECCENTRICITY":0.00007444,"INCLINATION":51.8998,"RA_OF_ASC_NODE":68.1627,"ARG_OF_PERICENTER":128.344,"MEAN_ANOMALY":231.7589,"EPHEMERIS_TYPE":0,"NORAD_CAT_ID":68591,"ELEMENT_SET_NO":999,"REV_AT_EPOCH":1504,"BSTAR":0.00026530024,"MEAN_MOTION_DOT":0.00001802,"MEAN_MOTION_DDOT":0},{"OBJECT_NAME":"KUIPER-00290","OBJECT_ID":"2026-072V","EPOCH":"2026-07-12T12:00:02.000160","CLASSIFICATION_TYPE":"U","MEAN_MOTION":14.76555841,"ECCENTRICITY":0.0000957,"INCLINATION":51.9021,"RA_OF_ASC_NODE":64.6436,"ARG_OF_PERICENTER":36.3833,"MEAN_ANOMALY":55.5065,"EPHEMERIS_TYPE":0,"NORAD_CAT_ID":68592,"ELEMENT_SET_NO":999,"REV_AT_EPOCH":447,"BSTAR":0.0007211,"MEAN_MOTION_DOT":0.00004864,"MEAN_MOTION_DDOT":0},{"OBJECT_NAME":"KUIPER-00293","OBJECT_ID":"2026-072W","EPOCH":"2026-07-12T02:49:18.384096","CLASSIFICATION_TYPE":"U","MEAN_MOTION":14.79936675,"ECCENTRICITY":0.00027637,"INCLINATION":51.8987,"RA_OF_ASC_NODE":77.8969,"ARG_OF_PERICENTER":122.2119,"MEAN_ANOMALY":237.9112,"EPHEMERIS_TYPE":0,"NORAD_CAT_ID":68593,"ELEMENT_SET_NO":999,"REV_AT_EPOCH":1491,"BSTAR":0.00016722037,"MEAN_MOTION_DOT":0.00001053,"MEAN_MOTION_DDOT":0},{"OBJECT_NAME":"KUIPER-00294","OBJECT_ID":"2026-072X","EPOCH":"2026-07-12T01:30:22.773312","CLASSIFICATION_TYPE":"U","MEAN_MOTION":14.78784199,"ECCENTRICITY":0.00017298,"INCLINATION":51.9003,"RA_OF_ASC_NODE":65.645,"ARG_OF_PERICENTER":76.7173,"MEAN_ANOMALY":283.3982,"EPHEMERIS_TYPE":0,"NORAD_CAT_ID":68594,"ELEMENT_SET_NO":999,"REV_AT_EPOCH":1508,"BSTAR":0.00021792636,"MEAN_MOTION_DOT":0.00001398,"MEAN_MOTION_DDOT":0},{"OBJECT_NAME":"KUIPER-00296","OBJECT_ID":"2026-072Y","EPOCH":"2026-07-12T00:00:00.999648","CLASSIFICATION_TYPE":"U","MEAN_MOTION":15.37166465,"ECCENTRICITY":0.00097,"INCLINATION":51.8707,"RA_OF_ASC_NODE":56.8376,"ARG_OF_PERICENTER":108.9497,"MEAN_ANOMALY":66.0528,"EPHEMERIS_TYPE":0,"NORAD_CAT_ID":68595,"ELEMENT_SET_NO":999,"REV_AT_EPOCH":583,"BSTAR":0.0010393325,"MEAN_MOTION_DOT":0.00038267,"MEAN_MOTION_DDOT":0},{"OBJECT_NAME":"KUIPER-00297","OBJECT_ID":"2026-072Z","EPOCH":"2026-07-12T01:18:04.938912","CLASSIFICATION_TYPE":"U","MEAN_MOTION":14.76358842,"ECCENTRICITY":0.0001168,"INCLINATION":51.9003,"RA_OF_ASC_NODE":77.8605,"ARG_OF_PERICENTER":130.4342,"MEAN_ANOMALY":229.6721,"EPHEMERIS_TYPE":0,"NORAD_CAT_ID":68596,"ELEMENT_SET_NO":999,"REV_AT_EPOCH":1491,"BSTAR":0.00013616455,"MEAN_MOTION_DOT":0.0000074,"MEAN_MOTION_DDOT":0},{"OBJECT_NAME":"KUIPER-00300","OBJECT_ID":"2026-072AA","EPOCH":"2026-07-12T01:06:43.854624","CLASSIFICATION_TYPE":"U","MEAN_MOTION":14.76473184,"ECCENTRICITY":0.0001873,"INCLINATION":51.9038,"RA_OF_ASC_NODE":74.9557,"ARG_OF_PERICENTER":125.1759,"MEAN_ANOMALY":234.9377,"EPHEMERIS_TYPE":0,"NORAD_CAT_ID":68597,"ELEMENT_SET_NO":999,"REV_AT_EPOCH":1495,"BSTAR":0.00019858275,"MEAN_MOTION_DOT":0.0000118,"MEAN_MOTION_DDOT":0},{"OBJECT_NAME":"KUIPER-00301","OBJECT_ID":"2026-072AB","EPOCH":"2026-07-11T20:06:48.244032","CLASSIFICATION_TYPE":"U","MEAN_MOTION":15.38693985,"ECCENTRICITY":0.00095444,"INCLINATION":51.8659,"RA_OF_ASC_NODE":57.5693,"ARG_OF_PERICENTER":110.7214,"MEAN_ANOMALY":249.4797,"EPHEMERIS_TYPE":0,"NORAD_CAT_ID":68598,"ELEMENT_SET_NO":999,"REV_AT_EPOCH":1517,"BSTAR":0.0005976939,"MEAN_MOTION_DOT":0.00022917,"MEAN_MOTION_DDOT":0},{"OBJECT_NAME":"KUIPER-00304","OBJECT_ID":"2026-072AC","EPOCH":"2026-07-11T18:52:42.605472","CLASSIFICATION_TYPE":"U","MEAN_MOTION":15.38499181,"ECCENTRICITY":0.00118091,"INCLINATION":51.8675,"RA_OF_ASC_NODE":57.9829,"ARG_OF_PERICENTER":112.8231,"MEAN_ANOMALY":247.4004,"EPHEMERIS_TYPE":0,"NORAD_CAT_ID":68599,"ELEMENT_SET_NO":999,"REV_AT_EPOCH":1516,"BSTAR":0.00057077614,"MEAN_MOTION_DOT":0.00021739,"MEAN_MOTION_DDOT":0},{"OBJECT_NAME":"KUIPER-00317","OBJECT_ID":"2026-072AD","EPOCH":"2026-07-12T00:42:52.204032","CLASSIFICATION_TYPE":"U","MEAN_MOTION":14.79962613,"ECCENTRICITY":0.00008716,"INCLINATION":51.8983,"RA_OF_ASC_NODE":65.8113,"ARG_OF_PERICENTER":98.0159,"MEAN_ANOMALY":262.0902,"EPHEMERIS_TYPE":0,"NORAD_CAT_ID":68600,"ELEMENT_SET_NO":999,"REV_AT_EPOCH":1507,"BSTAR":0.00030048691,"MEAN_MOTION_DOT":0.00002072,"MEAN_MOTION_DDOT":0},{"OBJECT_NAME":"KUIPER-00320","OBJECT_ID":"2026-072AE","EPOCH":"2026-07-11T01:53:42.623520","CLASSIFICATION_TYPE":"U","MEAN_MOTION":14.7992359,"ECCENTRICITY":0.00007209,"INCLINATION":51.9023,"RA_OF_ASC_NODE":75.004,"ARG_OF_PERICENTER":119.4256,"MEAN_ANOMALY":240.6779,"EPHEMERIS_TYPE":0,"NORAD_CAT_ID":68601,"ELEMENT_SET_NO":999,"REV_AT_EPOCH":1486,"BSTAR":0.00028487267,"MEAN_MOTION_DOT":0.00001951,"MEAN_MOTION_DDOT":0},{"OBJECT_NAME":"KUIPER-00299","OBJECT_ID":"2026-095A","EPOCH":"2026-07-12T05:51:20.687616","CLASSIFICATION_TYPE":"U","MEAN_MOTION":14.7647292,"ECCENTRICITY":0.0001554,"INCLINATION":51.8995,"RA_OF_ASC_NODE":138.3528,"ARG_OF_PERICENTER":257.947,"MEAN_ANOMALY":102.1317,"EPHEMERIS_TYPE":0,"NORAD_CAT_ID":68864,"ELEMENT_SET_NO":999,"REV_AT_EPOCH":1134,"BSTAR":0.00014476,"MEAN_MOTION_DOT":0.00000802,"MEAN_MOTION_DDOT":0},{"OBJECT_NAME":"KUIPER-00353","OBJECT_ID":"2026-095B","EPOCH":"2026-07-12T12:00:02.000160","CLASSIFICATION_TYPE":"U","MEAN_MOTION":14.85900486,"ECCENTRICITY":0.0002346,"INCLINATION":51.8982,"RA_OF_ASC_NODE":123.8421,"ARG_OF_PERICENTER":81.3237,"MEAN_ANOMALY":190.132,"EPHEMERIS_TYPE":0,"NORAD_CAT_ID":68865,"ELEMENT_SET_NO":999,"REV_AT_EPOCH":529,"BSTAR":-0.0075454,"MEAN_MOTION_DOT":-0.00066024,"MEAN_MOTION_DDOT":0}]}
