KUIPER-00272            
1 68588U 26072R   26193.11220126  .00001915  00000+0  28012-3 0  9999
2 68588  51.8983  82.9185 0000638 114.1691 245.9338 14.79925586 14841
KUIPER-00285            
1 68589U 26072S   26193.50002315 -.00025298  00000+0 -32779-2 0  9997
2 68589  51.9042  61.2760 0000664 298.8298 214.9397 14.80238043  5152
KUIPER-00286            
1 68590U 26072T   26193.50002315 -.00002643  00000+0 -27612-3 0  9999
2 68590  51.9007  58.4196 0003267  36.4620 257.2281 14.85552342  5836
KUIPER-00289            
1 68591U 26072U   26193.06083105  .00001802  00000+0  26530-3 0  9999
2 68591  51.8998  68.1627 0000744 128.3440 231.7589 14.79938561 15046
KUIPER-00290            
1 68592U 26072V   26193.50002315  .00004864  00000+0  72110-3 0  9999
2 68592  51.9021  64.6436 0000957  36.3833  55.5065 14.76555841  4473
KUIPER-00293            
1 68593U 26072W   26193.11757389  .00001053  00000+0  16722-3 0  9999
2 68593  51.8987  77.8969 0002763 122.2119 237.9112 14.79936675 14910
KUIPER-00294            
1 68594U 26072X   26193.06276358  .00001398  00000+0  21793-3 0  9992
2 68594  51.9003  65.6450 0001729  76.7173 283.3982 14.78784199 15085
KUIPER-00296            
1 68595U 26072Y   26193.00001157  .00038267  00000+0  10393-2 0  9998
2 68595  51.8707  56.8376 0009700 108.9497  66.0528 15.37166465  5839
KUIPER-00297            
1 68596U 26072Z   26193.05422383  .00000740  00000+0  13616-3 0  9999
2 68596  51.9003  77.8605 0001168 130.4342 229.6721 14.76358842 14912
KUIPER-00300            
1 68597U 26072AA  26193.04634091  .00001180  00000+0  19858-3 0  9993
2 68597  51.9038  74.9557 0001873 125.1759 234.9377 14.76473184 14958
KUIPER-00301            
1 68598U 26072AB  26192.83805838  .00022917  00000+0  59769-3 0  9995
2 68598  51.8659  57.5693 0009544 110.7214 249.4797 15.38693985 15178
KUIPER-00304            
1 68599U 26072AC  26192.78660423  .00021739  00000+0  57078-3 0  9991
2 68599  51.8675  57.9829 0011809 112.8231 247.4004 15.38499181 15161
KUIPER-00317            
1 68600U 26072AD  26193.02977088  .00002072  00000+0  30049-3 0  9998
2 68600  51.8983  65.8113 0000871  98.0159 262.0902 14.79962613 15070
KUIPER-00320            
1 68601U 26072AE  26192.07896555  .00001951  00000+0  28487-3 0  9990
2 68601  51.9023  75.0040 0000720 119.4256 240.6779 14.79923590 14869
KUIPER-00299            
1 68864U 26095A   26193.24398944  .00000802  00000+0  14476-3 0  9992
2 68864  51.8995 138.3528 0001554 257.9470 102.1317 14.76472920 11346
KUIPER-00353            
1 68865U 26095B   26193.50002315 -.00066024  00000+0 -75454-2 0  9998
2 68865  51.8982 123.8421 0002346  81.3237 190.1320 14.85900486  5295
